TIANMU-1 07             
1 57399U 23101A   26065.57454230  .00008352  00000+0  29795-3 0  9991
2 57399  97.2728 118.5929 0004609 142.4105 217.7458 15.29118809145964
STARLINK-31392          
1 59530U 24073V   26068.41868452 -.00001949  00000+0 -61324-4 0  9992
2 59530  43.0053 319.5899 0002057 264.0165  96.0453 15.27568337106136
